{"type": "FeatureCollection", "features": [{"type": "Feature", "geometry": {"type": "Point", "coordinates": [-85.64167, 43.677884]}, "properties": {"twp": "15n11w", "sections": [20, 21], "kind": "soil", "text": "Soil 2nd & 3rd [rate]", "color": "#a07b2a"}}, {"type": "Feature", "geometry": {"type": "Point", "coordinates": [-85.63161, 43.677978]}, "properties": {"twp": "15n11w", "sections": [21], "kind": "timber", "text": "Timber Y. Pine [yellow pine]", "color": "#3d7a4a"}}, {"type": "Feature", "geometry": {"type": "Point", "coordinates": [-85.661695, 43.663383]}, "properties": {"twp": "15n11w", "sections": [29, 30], "kind": "terrain", "text": "3rd rate, rolling", "color": "#7a6a9a"}}, {"type": "Feature", "geometry": {"type": "Point", "coordinates": [-85.64182, 43.663533]}, "properties": {"twp": "15n11w", "sections": [28, 29], "kind": "soil", "text": "better quality", "color": "#a07b2a"}}, {"type": "Feature", "geometry": {"type": "Point", "coordinates": [-85.671581, 43.64895]}, "properties": {"twp": "15n11w", "sections": [31], "kind": "terrain", "text": "land", "color": "#7a6a9a"}}, {"type": "Feature", "geometry": {"type": "Point", "coordinates": [-85.661742, 43.656195]}, "properties": {"twp": "15n11w", "sections": [30, 32], "kind": "feature", "text": "Marsh", "color": "#3d6a8a"}}, {"type": "Feature", "geometry": {"type": "Point", "coordinates": [-85.631949, 43.649189]}, "properties": {"twp": "15n11w", "sections": [33], "kind": "timber", "text": "Tamarack", "color": "#3d7a4a"}}, {"type": "Feature", "geometry": {"type": "Point", "coordinates": [-85.621594, 43.692544]}, "properties": {"twp": "15n11w", "sections": [15, 16], "kind": "timber", "text": "Beech", "color": "#3d7a4a"}}, {"type": "Feature", "geometry": {"type": "Point", "coordinates": [-85.621652, 43.678066]}, "properties": {"twp": "15n11w", "sections": [21, 22], "kind": "timber", "text": "B. W. Oak [black & white oak]", "color": "#3d7a4a"}}, {"type": "Feature", "geometry": {"type": "Point", "coordinates": [-85.631573, 43.692467]}, "properties": {"twp": "15n11w", "sections": [16], "kind": "soil", "text": "2nd rate", "color": "#a07b2a"}}, {"type": "Feature", "geometry": {"type": "Point", "coordinates": [-85.830278, 43.705755]}, "properties": {"twp": "15n13w", "sections": [10, 11, 12], "kind": "soil", "text": "Soil sandy", "color": "#a07b2a"}}, {"type": "Feature", "geometry": {"type": "Point", "coordinates": [-85.820308, 43.705821]}, "properties": {"twp": "15n13w", "sections": [11, 12], "kind": "soil", "text": "[b]etter quality", "color": "#a07b2a"}}, {"type": "Feature", "geometry": {"type": "Point", "coordinates": [-85.820076, 43.720282]}, "properties": {"twp": "15n13w", "sections": [1, 2], "kind": "soil", "text": "2nd & 3rd rate", "color": "#a07b2a"}}, {"type": "Feature", "geometry": {"type": "Point", "coordinates": [-85.830012, 43.720208]}, "properties": {"twp": "15n13w", "sections": [2], "kind": "soil", "text": "poor", "color": "#a07b2a"}}, {"type": "Feature", "geometry": {"type": "Point", "coordinates": [-85.83055, 43.69122]}, "properties": {"twp": "15n13w", "sections": [13, 14, 15], "kind": "timber", "text": "Timber Hemlock Maple", "color": "#3d7a4a"}}, {"type": "Feature", "geometry": {"type": "Point", "coordinates": [-85.860595, 43.691069]}, "properties": {"twp": "15n13w", "sections": [15, 16], "kind": "soil", "text": "& gravel", "color": "#a07b2a"}}, {"type": "Feature", "geometry": {"type": "Point", "coordinates": [-85.880483, 43.69104]}, "properties": {"twp": "15n13w", "sections": [16, 17], "kind": "other", "text": "W. more [W. marl?]", "color": "#8a8a8a"}}, {"type": "Feature", "geometry": {"type": "Point", "coordinates": [-85.850791, 43.676627]}, "properties": {"twp": "15n13w", "sections": [22], "kind": "soil", "text": "soil sand[y]", "color": "#a07b2a"}}, {"type": "Feature", "geometry": {"type": "Point", "coordinates": [-85.850766, 43.669386]}, "properties": {"twp": "15n13w", "sections": [22, 27], "kind": "timber", "text": "small Y.W. [yellow/white] S. Pine", "color": "#3d7a4a"}}, {"type": "Feature", "geometry": {"type": "Point", "coordinates": [-85.840775, 43.676653]}, "properties": {"twp": "15n13w", "sections": [22, 23], "kind": "timber", "text": "W. & B. Oak [white & black oak]", "color": "#3d7a4a"}}, {"type": "Feature", "geometry": {"type": "Point", "coordinates": [-85.880696, 43.676558]}, "properties": {"twp": "15n13w", "sections": [20, 21], "kind": "soil", "text": "sand & [gravel]", "color": "#a07b2a"}}, {"type": "Feature", "geometry": {"type": "Point", "coordinates": [-85.880662, 43.662141]}, "properties": {"twp": "15n13w", "sections": [28, 29], "kind": "terrain", "text": "land gently rolling", "color": "#7a6a9a"}}, {"type": "Feature", "geometry": {"type": "Point", "coordinates": [-85.90056, 43.66214]}, "properties": {"twp": "15n13w", "sections": [29, 30], "kind": "soil", "text": "W. B. part [?]", "color": "#a07b2a"}}, {"type": "Feature", "geometry": {"type": "Point", "coordinates": [-85.880558, 43.647686]}, "properties": {"twp": "15n13w", "sections": [32, 33], "kind": "timber", "text": "Timber dense [?] in the", "color": "#3d7a4a"}}, {"type": "Feature", "geometry": {"type": "Point", "coordinates": [-85.900473, 43.647696]}, "properties": {"twp": "15n13w", "sections": [31, 32], "kind": "other", "text": "wet land", "color": "#8a8a8a"}}, {"type": "Feature", "geometry": {"type": "Point", "coordinates": [-85.900532, 43.676524]}, "properties": {"twp": "15n13w", "sections": [19, 20], "kind": "terrain", "text": "in the", "color": "#7a6a9a"}}, {"type": "Feature", "geometry": {"type": "Point", "coordinates": [-85.870119, 43.705583]}, "properties": {"twp": "15n13w", "sections": [9], "kind": "feature", "text": "Marsh", "color": "#3d6a8a"}}, {"type": "Feature", "geometry": {"type": "Point", "coordinates": [-85.83029, 43.705762]}, "properties": {"twp": "15n13w", "sections": [11], "kind": "feature", "text": "Marsh", "color": "#3d6a8a"}}, {"type": "Feature", "geometry": {"type": "Point", "coordinates": [-85.810326, 43.70588]}, "properties": {"twp": "15n13w", "sections": [12], "kind": "feature", "text": "Marsh", "color": "#3d6a8a"}}, {"type": "Feature", "geometry": {"type": "Point", "coordinates": [-85.830787, 43.662182]}, "properties": {"twp": "15n13w", "sections": [26], "kind": "feature", "text": "Marsh", "color": "#3d6a8a"}}, {"type": "Feature", "geometry": {"type": "Point", "coordinates": [-85.810786, 43.654997]}, "properties": {"twp": "15n13w", "sections": [25, 36], "kind": "feature", "text": "Marsh", "color": "#3d6a8a"}}, {"type": "Feature", "geometry": {"type": "Point", "coordinates": [-85.910439, 43.64772]}, "properties": {"twp": "15n13w", "sections": [31], "kind": "feature", "text": "Marsh", "color": "#3d6a8a"}}, {"type": "Feature", "geometry": {"type": "Point", "coordinates": [-85.830731, 43.67668]}, "properties": {"twp": "15n13w", "sections": [22, 23, 24], "kind": "feature", "text": "Spring / Springs (along N line of 22-24)", "color": "#3d6a8a"}}, {"type": "Feature", "geometry": {"type": "Point", "coordinates": [-85.840593, 43.691174]}, "properties": {"twp": "15n13w", "sections": [14, 15], "kind": "feature", "text": "Springs (along S line of 14-15)", "color": "#3d6a8a"}}, {"type": "Feature", "geometry": {"type": "Point", "coordinates": [-85.771436, 43.749478]}, "properties": {"twp": "16n12w", "sections": [29], "kind": "terrain", "text": "rolling", "color": "#7a6a9a"}}, {"type": "Feature", "geometry": {"type": "Point", "coordinates": [-85.781123, 43.74937]}, "properties": {"twp": "16n12w", "sections": [29, 30], "kind": "feature", "text": "bottoms", "color": "#3d6a8a"}}, {"type": "Feature", "geometry": {"type": "Point", "coordinates": [-85.7711, 43.735024]}, "properties": {"twp": "16n12w", "sections": [32], "kind": "timber", "text": "Oak", "color": "#3d7a4a"}}, {"type": "Feature", "geometry": {"type": "Point", "coordinates": [-85.7711, 43.735024]}, "properties": {"twp": "16n12w", "sections": [32], "kind": "timber", "text": "Beech", "color": "#3d7a4a"}}, {"type": "Feature", "geometry": {"type": "Point", "coordinates": [-85.751584, 43.756816]}, "properties": {"twp": "16n12w", "sections": [21, 28], "kind": "soil", "text": "Soil 3d [3rd rate]", "color": "#a07b2a"}}, {"type": "Feature", "geometry": {"type": "Point", "coordinates": [-85.771268, 43.742251]}, "properties": {"twp": "16n12w", "sections": [29, 32], "kind": "timber", "text": "Maple &c", "color": "#3d7a4a"}}, {"type": "Feature", "geometry": {"type": "Point", "coordinates": [-85.751584, 43.756816]}, "properties": {"twp": "16n12w", "sections": [21, 28], "kind": "feature", "text": "marsh / swamp (stippled)", "color": "#3d6a8a"}}, {"type": "Feature", "geometry": {"type": "Point", "coordinates": [-85.731631, 43.771327]}, "properties": {"twp": "16n12w", "sections": [15, 22], "kind": "timber", "text": "Tim[ber] small & shrubby Pine", "color": "#3d7a4a"}}, {"type": "Feature", "geometry": {"type": "Point", "coordinates": [-85.751567, 43.771232]}, "properties": {"twp": "16n12w", "sections": [16, 21], "kind": "soil", "text": "Soil ...", "color": "#a07b2a"}}, {"type": "Feature", "geometry": {"type": "Point", "coordinates": [-85.820271, 43.807039]}, "properties": {"twp": "16n13w", "sections": [1, 2], "kind": "timber", "text": "pitch Pine Plains", "color": "#3d7a4a"}}, {"type": "Feature", "geometry": {"type": "Point", "coordinates": [-85.810165, 43.79981]}, "properties": {"twp": "16n13w", "sections": [1, 12], "kind": "soil", "text": "2nd [rate]", "color": "#a07b2a"}}, {"type": "Feature", "geometry": {"type": "Point", "coordinates": [-85.82019, 43.792659]}, "properties": {"twp": "16n13w", "sections": [11, 12], "kind": "soil", "text": "good ... fair", "color": "#a07b2a"}}, {"type": "Feature", "geometry": {"type": "Point", "coordinates": [-85.810052, 43.785346]}, "properties": {"twp": "16n13w", "sections": [12, 13], "kind": "timber", "text": "alder &c", "color": "#3d7a4a"}}, {"type": "Feature", "geometry": {"type": "Point", "coordinates": [-85.836958, 43.782969]}, "properties": {"twp": "16n13w", "sections": [11, 14, 15], "kind": "timber", "text": "Beech Maple", "color": "#3d7a4a"}}, {"type": "Feature", "geometry": {"type": "Point", "coordinates": [-85.810088, 43.792598]}, "properties": {"twp": "16n13w", "sections": [12], "kind": "timber", "text": "B. O. [black oak]", "color": "#3d7a4a"}}, {"type": "Feature", "geometry": {"type": "Point", "coordinates": [-85.830292, 43.792719]}, "properties": {"twp": "16n13w", "sections": [11], "kind": "feature", "text": "grass Bottoms", "color": "#3d6a8a"}}, {"type": "Feature", "geometry": {"type": "Point", "coordinates": [-85.860298, 43.778024]}, "properties": {"twp": "16n13w", "sections": [15, 16], "kind": "soil", "text": "3rd rate", "color": "#a07b2a"}}, {"type": "Feature", "geometry": {"type": "Point", "coordinates": [-85.850315, 43.770778]}, "properties": {"twp": "16n13w", "sections": [15, 22], "kind": "timber", "text": "pine plains", "color": "#3d7a4a"}}, {"type": "Feature", "geometry": {"type": "Point", "coordinates": [-85.850324, 43.763493]}, "properties": {"twp": "16n13w", "sections": [22], "kind": "timber", "text": "Hemlock", "color": "#3d7a4a"}}, {"type": "Feature", "geometry": {"type": "Point", "coordinates": [-85.870199, 43.756192]}, "properties": {"twp": "16n13w", "sections": [21, 28], "kind": "feature", "text": "Prairie", "color": "#3d6a8a"}}, {"type": "Feature", "geometry": {"type": "Point", "coordinates": [-85.840233, 43.756185]}, "properties": {"twp": "16n13w", "sections": [22, 23, 26, 27], "kind": "feature", "text": "large marsh / swamp (stippled)", "color": "#3d6a8a"}}, {"type": "Feature", "geometry": {"type": "Point", "coordinates": [-85.870304, 43.763482]}, "properties": {"twp": "16n13w", "sections": [21], "kind": "soil", "text": "sands", "color": "#a07b2a"}}, {"type": "Feature", "geometry": {"type": "Point", "coordinates": [-85.860314, 43.763488]}, "properties": {"twp": "16n13w", "sections": [21, 22], "kind": "timber", "text": "Oak", "color": "#3d7a4a"}}, {"type": "Feature", "geometry": {"type": "Point", "coordinates": [-85.948315, 43.807373]}, "properties": {"twp": "16n14w", "sections": [1, 2, 3], "kind": "other", "text": "Resurveyed (north township line, marked 3x)", "color": "#8a8a8a"}}, {"type": "Feature", "geometry": {"type": "Point", "coordinates": [-85.938384, 43.807321]}, "properties": {"twp": "16n14w", "sections": [1, 2], "kind": "soil", "text": "2nd & 3rd rate", "color": "#a07b2a"}}, {"type": "Feature", "geometry": {"type": "Point", "coordinates": [-85.938728, 43.792547]}, "properties": {"twp": "16n14w", "sections": [11, 12], "kind": "timber", "text": "land ... Pine &c", "color": "#3d7a4a"}}, {"type": "Feature", "geometry": {"type": "Point", "coordinates": [-85.948863, 43.785304]}, "properties": {"twp": "16n14w", "sections": [11, 14], "kind": "timber", "text": "Spruce", "color": "#3d7a4a"}}, {"type": "Feature", "geometry": {"type": "Point", "coordinates": [-85.948863, 43.785304]}, "properties": {"twp": "16n14w", "sections": [11, 14], "kind": "timber", "text": "Tamarack", "color": "#3d7a4a"}}, {"type": "Feature", "geometry": {"type": "Point", "coordinates": [-85.968654, 43.778344]}, "properties": {"twp": "16n14w", "sections": [15], "kind": "timber", "text": "Cedar", "color": "#3d7a4a"}}, {"type": "Feature", "geometry": {"type": "Point", "coordinates": [-85.968849, 43.771096]}, "properties": {"twp": "16n14w", "sections": [15, 22], "kind": "timber", "text": "Birch", "color": "#3d7a4a"}}, {"type": "Feature", "geometry": {"type": "Point", "coordinates": [-85.968365, 43.792818]}, "properties": {"twp": "16n14w", "sections": [10], "kind": "timber", "text": "Y. P. [yellow pine]", "color": "#3d7a4a"}}, {"type": "Feature", "geometry": {"type": "Point", "coordinates": [-85.978579, 43.778514]}, "properties": {"twp": "16n14w", "sections": [13, 14, 15, 16, 17, 18], "kind": "timber", "text": "alder (repeated along S line - alder swamp)", "color": "#3d7a4a"}}, {"type": "Feature", "geometry": {"type": "Point", "coordinates": [-85.928803, 43.785279]}, "properties": {"twp": "16n14w", "sections": [12, 13], "kind": "feature", "text": "Marsh", "color": "#3d6a8a"}}, {"type": "Feature", "geometry": {"type": "Point", "coordinates": [-85.988493, 43.77149]}, "properties": {"twp": "16n14w", "sections": [16, 21], "kind": "feature", "text": "barrens", "color": "#3d6a8a"}}, {"type": "Feature", "geometry": {"type": "Point", "coordinates": [-85.978888, 43.764054]}, "properties": {"twp": "16n14w", "sections": [21, 22], "kind": "timber", "text": "Beech Maple", "color": "#3d7a4a"}}, {"type": "Feature", "geometry": {"type": "Point", "coordinates": [-85.978454, 43.778532]}, "properties": {"twp": "16n14w", "sections": [15, 16], "kind": "timber", "text": "Cedar", "color": "#3d7a4a"}}]}